{
    "links": {
        "self": "http://www.neowsapp.com/rest/v1/neo/3483651?api_key=iIulBulltgU6a56xZRHN4H3l9WmuAYTsLGpBGhQ2"
    },
    "id": "3483651",
    "neo_reference_id": "3483651",
    "name": "(2009 XK8)",
    "designation": "2009 XK8",
    "nasa_jpl_url": "http://ssd.jpl.nasa.gov/sbdb.cgi?sstr=3483651",
    "absolute_magnitude_h": 25.1,
    "estimated_diameter": {
        "kilometers": {
            "estimated_diameter_min": 0.0253837029,
            "estimated_diameter_max": 0.0567596853
        },
        "meters": {
            "estimated_diameter_min": 25.3837029364,
            "estimated_diameter_max": 56.7596852866
        },
        "miles": {
            "estimated_diameter_min": 0.0157726969,
            "estimated_diameter_max": 0.0352688224
        },
        "feet": {
            "estimated_diameter_min": 83.279867942,
            "estimated_diameter_max": 186.2194458756
        }
    },
    "is_potentially_hazardous_asteroid": false,
    "close_approach_data": [
        {
            "close_approach_date": "2009-12-11",
            "close_approach_date_full": "2009-Dec-11 06:16",
            "epoch_date_close_approach": 1260512160000,
            "relative_velocity": {
                "kilometers_per_second": "10.6667009196",
                "kilometers_per_hour": "38400.1233105643",
                "miles_per_hour": "23860.3432870559"
            },
            "miss_distance": {
                "astronomical": "0.041387082",
                "lunar": "16.099574898",
                "kilometers": "6191419.31271534",
                "miles": "3847169.565298092"
            },
            "orbiting_body": "Earth"
        },
        {
            "close_approach_date": "2010-03-08",
            "close_approach_date_full": "2010-Mar-08 09:11",
            "epoch_date_close_approach": 1268039460000,
            "relative_velocity": {
                "kilometers_per_second": "15.0256532456",
                "kilometers_per_hour": "54092.35168398",
                "miles_per_hour": "33610.8837449708"
            },
            "miss_distance": {
                "astronomical": "0.0551737137",
                "lunar": "21.4625746293",
                "kilometers": "8253870.049509819",
                "miles": "5128717.0269967422"
            },
            "orbiting_body": "Mars"
        }
    ],
    "orbital_data": {
        "orbit_id": "8",
        "orbit_determination_date": "2017-04-06 08:58:45",
        "first_observation_date": "2009-12-15",
        "last_observation_date": "2009-12-21",
        "data_arc_in_days": 6,
        "observations_used": 34,
        "orbit_uncertainty": "9",
        "minimum_orbit_intersection": ".0275362",
        "jupiter_tisserand_invariant": "3.179",
        "epoch_osculation": "2455181.5",
        "eccentricity": ".6158769650623838",
        "semi_major_axis": "2.489691397399139",
        "inclination": "2.772677417947761",
        "ascending_node_longitude": "106.8753876468833",
        "orbital_period": "1434.883709240515",
        "perihelion_distance": ".9563478156270319",
        "perihelion_argument": "300.8546937679981",
        "aphelion_distance": "4.023034979171245",
        "perihelion_time": "2455153.566187436128",
        "mean_anomaly": "7.008353679279457",
        "mean_motion": ".2508914120925857",
        "equinox": "J2000",
        "orbit_class": {
            "orbit_class_type": "APO",
            "orbit_class_description": "Near-Earth asteroid orbits which cross the Earth’s orbit similar to that of 1862 Apollo",
            "orbit_class_range": "a (semi-major axis) > 1.0 AU; q (perihelion) < 1.017 AU"
        }
    },
    "is_sentry_object": false
}